[
  {
    "OBJECT_NAME": "STARLINK-30545",
    "OBJECT_ID": "23153K",
    "EPOCH": "2025-11-11T01:50:30.599520",
    "MEAN_MOTION": 15.02536194,
    "ECCENTRICITY": 0.0001218,
    "INCLINATION": 43.0047,
    "RA_OF_ASC_NODE": 353.2787,
    "ARG_OF_PERICENTER": 275.7386,
    "MEAN_ANOMALY": 84.3317,
    "EPHEMERIS_TYPE": 0,
    "CLASSIFICATION_TYPE": "U",
    "NORAD_CAT_ID": 58000,
    "ELEMENT_SET_NO": 999,
    "REV_AT_EPOCH": 11703,
    "BSTAR": 9.776300000000002e-06,
    "MEAN_MOTION_DOT": -7.2e-07,
    "MEAN_MOTION_DDOT": 0.0,
    "TLE_LINE1": "1 58000U 23153K   25315.07674305 -.00000072  00000+0  97763-5 0  9991",
    "TLE_LINE2": "2 58000  43.0047 353.2787 0001218 275.7386  84.3317 15.02536194117032",
    "COMMENT": "Grouped by shell and plane from TLE"
  },
  {
    "OBJECT_NAME": "STARLINK-30535",
    "OBJECT_ID": "23153L",
    "EPOCH": "2025-11-11T03:21:26.375040",
    "MEAN_MOTION": 15.025456,
    "ECCENTRICITY": 0.0001044,
    "INCLINATION": 43.008,
    "RA_OF_ASC_NODE": 352.8971,
    "ARG_OF_PERICENTER": 266.4478,
    "MEAN_ANOMALY": 93.6245,
    "EPHEMERIS_TYPE": 0,
    "CLASSIFICATION_TYPE": "U",
    "NORAD_CAT_ID": 58001,
    "ELEMENT_SET_NO": 999,
    "REV_AT_EPOCH": 11704,
    "BSTAR": 9.9889e-05,
    "MEAN_MOTION_DOT": 1.146e-05,
    "MEAN_MOTION_DDOT": 0.0,
    "TLE_LINE1": "1 58001U 23153L   25315.13988860  .00001146  00000+0  99889-4 0  9995",
    "TLE_LINE2": "2 58001  43.0080 352.8971 0001044 266.4478  93.6245 15.02545600117042",
    "COMMENT": "Grouped by shell and plane from TLE"
  },
  {
    "OBJECT_NAME": "STARLINK-30540",
    "OBJECT_ID": "23153M",
    "EPOCH": "2025-11-11T04:14:10.855392",
    "MEAN_MOTION": 15.02546504,
    "ECCENTRICITY": 0.0001377,
    "INCLINATION": 43.0055,
    "RA_OF_ASC_NODE": 353.1525,
    "ARG_OF_PERICENTER": 268.3062,
    "MEAN_ANOMALY": 91.7623,
    "EPHEMERIS_TYPE": 0,
    "CLASSIFICATION_TYPE": "U",
    "NORAD_CAT_ID": 58002,
    "ELEMENT_SET_NO": 999,
    "REV_AT_EPOCH": 11694,
    "BSTAR": 0.00035889,
    "MEAN_MOTION_DOT": 4.649e-05,
    "MEAN_MOTION_DDOT": 0.0,
    "TLE_LINE1": "1 58002U 23153M   25315.17651453  .00004649  00000+0  35889-3 0  9995",
    "TLE_LINE2": "2 58002  43.0055 353.1525 0001377 268.3062  91.7623 15.02546504116944",
    "COMMENT": "Grouped by shell and plane from TLE"
  },
  {
    "OBJECT_NAME": "STARLINK-30546",
    "OBJECT_ID": "23153N",
    "EPOCH": "2025-11-11T03:16:38.881632",
    "MEAN_MOTION": 15.02534168,
    "ECCENTRICITY": 0.0001012,
    "INCLINATION": 43.0035,
    "RA_OF_ASC_NODE": 352.8668,
    "ARG_OF_PERICENTER": 277.1638,
    "MEAN_ANOMALY": 82.9089,
    "EPHEMERIS_TYPE": 0,
    "CLASSIFICATION_TYPE": "U",
    "NORAD_CAT_ID": 58003,
    "ELEMENT_SET_NO": 999,
    "REV_AT_EPOCH": 11704,
    "BSTAR": 6.9771e-05,
    "MEAN_MOTION_DOT": 7.39e-06,
    "MEAN_MOTION_DDOT": 0.0,
    "TLE_LINE1": "1 58003U 23153N   25315.13656113  .00000739  00000+0  69771-4 0  9994",
    "TLE_LINE2": "2 58003  43.0035 352.8668 0001012 277.1638  82.9089 15.02534168117043",
    "COMMENT": "Grouped by shell and plane from TLE"
  },
  {
    "OBJECT_NAME": "STARLINK-30539",
    "OBJECT_ID": "23153P",
    "EPOCH": "2025-11-11T03:11:50.658144",
    "MEAN_MOTION": 15.02547332,
    "ECCENTRICITY": 0.0001068,
    "INCLINATION": 43.0058,
    "RA_OF_ASC_NODE": 352.8476,
    "ARG_OF_PERICENTER": 269.3676,
    "MEAN_ANOMALY": 90.7044,
    "EPHEMERIS_TYPE": 0,
    "CLASSIFICATION_TYPE": "U",
    "NORAD_CAT_ID": 58004,
    "ELEMENT_SET_NO": 999,
    "REV_AT_EPOCH": 11704,
    "BSTAR": 0.00014692,
    "MEAN_MOTION_DOT": 1.782e-05,
    "MEAN_MOTION_DDOT": 0.0,
    "TLE_LINE1": "1 58004U 23153P   25315.13322521  .00001782  00000+0  14692-3 0  9998",
    "TLE_LINE2": "2 58004  43.0058 352.8476 0001068 269.3676  90.7044 15.02547332117047",
    "COMMENT": "Grouped by shell and plane from TLE"
  },
  {
    "OBJECT_NAME": "STARLINK-30530",
    "OBJECT_ID": "23153Q",
    "EPOCH": "2025-11-11T03:02:15.934848",
    "MEAN_MOTION": 15.02528462,
    "ECCENTRICITY": 0.0001632,
    "INCLINATION": 43.0064,
    "RA_OF_ASC_NODE": 352.7906,
    "ARG_OF_PERICENTER": 281.7386,
    "MEAN_ANOMALY": 78.3273,
    "EPHEMERIS_TYPE": 0,
    "CLASSIFICATION_TYPE": "U",
    "NORAD_CAT_ID": 58005,
    "ELEMENT_SET_NO": 999,
    "REV_AT_EPOCH": 11704,
    "BSTAR": 0.0,
    "MEAN_MOTION_DOT": -1.784e-05,
    "MEAN_MOTION_DDOT": 0.0,
    "TLE_LINE1": "1 58005U 23153Q   25315.12657332 -.00001784  00000+0 -11706-3 0  9996",
    "TLE_LINE2": "2 58005  43.0064 352.7906 0001632 281.7386  78.3273 15.02528462117044",
    "COMMENT": "Grouped by shell and plane from TLE"
  },
  {
    "OBJECT_NAME": "STARLINK-30522",
    "OBJECT_ID": "23153T",
    "EPOCH": "2025-11-11T03:35:49.085088",
    "MEAN_MOTION": 15.02542152,
    "ECCENTRICITY": 0.0001338,
    "INCLINATION": 43.0049,
    "RA_OF_ASC_NODE": 352.9616,
    "ARG_OF_PERICENTER": 267.3161,
    "MEAN_ANOMALY": 92.7528,
    "EPHEMERIS_TYPE": 0,
    "CLASSIFICATION_TYPE": "U",
    "NORAD_CAT_ID": 58008,
    "ELEMENT_SET_NO": 999,
    "REV_AT_EPOCH": 11704,
    "BSTAR": 0.00014094000000000002,
    "MEAN_MOTION_DOT": 1.701e-05,
    "MEAN_MOTION_DDOT": 0.0,
    "TLE_LINE1": "1 58008U 23153T   25315.14987367  .00001701  00000+0  14094-3 0  9995",
    "TLE_LINE2": "2 58008  43.0049 352.9616 0001338 267.3161  92.7528 15.02542152117049",
    "COMMENT": "Grouped by shell and plane from TLE"
  },
  {
    "OBJECT_NAME": "STARLINK-30486",
    "OBJECT_ID": "23153U",
    "EPOCH": "2025-11-11T04:42:47.287296",
    "MEAN_MOTION": 15.02537863,
    "ECCENTRICITY": 0.0001608,
    "INCLINATION": 43.0026,
    "RA_OF_ASC_NODE": 352.4504,
    "ARG_OF_PERICENTER": 269.7418,
    "MEAN_ANOMALY": 90.3241,
    "EPHEMERIS_TYPE": 0,
    "CLASSIFICATION_TYPE": "U",
    "NORAD_CAT_ID": 58009,
    "ELEMENT_SET_NO": 999,
    "REV_AT_EPOCH": 11695,
    "BSTAR": 0.0,
    "MEAN_MOTION_DOT": -4.3e-06,
    "MEAN_MOTION_DDOT": 0.0,
    "TLE_LINE1": "1 58009U 23153U   25315.19638064 -.00000430  00000+0 -16732-4 0  9990",
    "TLE_LINE2": "2 58009  43.0026 352.4504 0001608 269.7418  90.3241 15.02537863116955",
    "COMMENT": "Grouped by shell and plane from TLE"
  },
  {
    "OBJECT_NAME": "STARLINK-30520",
    "OBJECT_ID": "23153V",
    "EPOCH": "2025-11-11T02:52:50.135808",
    "MEAN_MOTION": 15.02546597,
    "ECCENTRICITY": 0.0001075,
    "INCLINATION": 43.0044,
    "RA_OF_ASC_NODE": 353.5853,
    "ARG_OF_PERICENTER": 258.8237,
    "MEAN_ANOMALY": 101.2484,
    "EPHEMERIS_TYPE": 0,
    "CLASSIFICATION_TYPE": "U",
    "NORAD_CAT_ID": 58010,
    "ELEMENT_SET_NO": 999,
    "REV_AT_EPOCH": 11693,
    "BSTAR": 0.000183,
    "MEAN_MOTION_DOT": 2.27e-05,
    "MEAN_MOTION_DDOT": 0.0,
    "TLE_LINE1": "1 58010U 23153V   25315.12002472  .00002270  00000+0  18300-3 0  9997",
    "TLE_LINE2": "2 58010  43.0044 353.5853 0001075 258.8237 101.2484 15.02546597116935",
    "COMMENT": "Grouped by shell and plane from TLE"
  },
  {
    "OBJECT_NAME": "STARLINK-30497",
    "OBJECT_ID": "23153W",
    "EPOCH": "2025-11-11T02:48:01.894176",
    "MEAN_MOTION": 15.02545257,
    "ECCENTRICITY": 0.0001513,
    "INCLINATION": 43.0039,
    "RA_OF_ASC_NODE": 353.5611,
    "ARG_OF_PERICENTER": 263.8445,
    "MEAN_ANOMALY": 96.2225,
    "EPHEMERIS_TYPE": 0,
    "CLASSIFICATION_TYPE": "U",
    "NORAD_CAT_ID": 58011,
    "ELEMENT_SET_NO": 999,
    "REV_AT_EPOCH": 11703,
    "BSTAR": 0.00011949,
    "MEAN_MOTION_DOT": 1.411e-05,
    "MEAN_MOTION_DDOT": 0.0,
    "TLE_LINE1": "1 58011U 23153W   25315.11668859  .00001411  00000+0  11949-3 0  9992",
    "TLE_LINE2": "2 58011  43.0039 353.5611 0001513 263.8445  96.2225 15.02545257117036",
    "COMMENT": "Grouped by shell and plane from TLE"
  },
  {
    "OBJECT_NAME": "STARLINK-30525",
    "OBJECT_ID": "23153X",
    "EPOCH": "2025-11-11T02:33:39.559968",
    "MEAN_MOTION": 15.02535108,
    "ECCENTRICITY": 0.0001232,
    "INCLINATION": 43.0052,
    "RA_OF_ASC_NODE": 353.484,
    "ARG_OF_PERICENTER": 273.5651,
    "MEAN_ANOMALY": 86.505,
    "EPHEMERIS_TYPE": 0,
    "CLASSIFICATION_TYPE": "U",
    "NORAD_CAT_ID": 58012,
    "ELEMENT_SET_NO": 999,
    "REV_AT_EPOCH": 11703,
    "BSTAR": 6.7946e-05,
    "MEAN_MOTION_DOT": 7.14e-06,
    "MEAN_MOTION_DDOT": 0.0,
    "TLE_LINE1": "1 58012U 23153X   25315.10670787  .00000714  00000+0  67946-4 0  9999",
    "TLE_LINE2": "2 58012  43.0052 353.4840 0001232 273.5651  86.5050 15.02535108117032",
    "COMMENT": "Grouped by shell and plane from TLE"
  },
  {
    "OBJECT_NAME": "STARLINK-30947",
    "OBJECT_ID": "23186A",
    "EPOCH": "2025-11-11T03:09:53.769312",
    "MEAN_MOTION": 15.02550952,
    "ECCENTRICITY": 0.0001133,
    "INCLINATION": 43.0064,
    "RA_OF_ASC_NODE": 351.9825,
    "ARG_OF_PERICENTER": 272.7953,
    "MEAN_ANOMALY": 87.276,
    "EPHEMERIS_TYPE": 0,
    "CLASSIFICATION_TYPE": "U",
    "NORAD_CAT_ID": 58473,
    "ELEMENT_SET_NO": 999,
    "REV_AT_EPOCH": 10801,
    "BSTAR": 0.00022672,
    "MEAN_MOTION_DOT": 2.861e-05,
    "MEAN_MOTION_DDOT": 0.0,
    "TLE_LINE1": "1 58473U 23186A   25315.13187233  .00002861  00000+0  22672-3 0  9999",
    "TLE_LINE2": "2 58473  43.0064 351.9825 0001133 272.7953  87.2760 15.02550952108016",
    "COMMENT": "Grouped by shell and plane from TLE"
  },
  {
    "OBJECT_NAME": "STARLINK-30941",
    "OBJECT_ID": "23186C",
    "EPOCH": "2025-11-11T03:00:19.034784",
    "MEAN_MOTION": 15.02536008,
    "ECCENTRICITY": 0.0001721,
    "INCLINATION": 43.0062,
    "RA_OF_ASC_NODE": 351.9302,
    "ARG_OF_PERICENTER": 282.1817,
    "MEAN_ANOMALY": 77.8832,
    "EPHEMERIS_TYPE": 0,
    "CLASSIFICATION_TYPE": "U",
    "NORAD_CAT_ID": 58475,
    "ELEMENT_SET_NO": 999,
    "REV_AT_EPOCH": 10801,
    "BSTAR": 4.5527e-05,
    "MEAN_MOTION_DOT": 4.11e-06,
    "MEAN_MOTION_DDOT": 0.0,
    "TLE_LINE1": "1 58475U 23186C   25315.12522031  .00000411  00000+0  45527-4 0  9993",
    "TLE_LINE2": "2 58475  43.0062 351.9302 0001721 282.1817  77.8832 15.02536008108014",
    "COMMENT": "Grouped by shell and plane from TLE"
  }
]